TOMORROW-S1             
1 60479U 24149M   26068.72470524  .00008620  00000+0  28856-3 0  9996
2 60479  97.3791 149.6044 0001819 207.2040 152.9106 15.31198362 86867
STARLINK-34072          
1 64101U 25110F   26068.32248140  .00028940  00000+0  98572-3 0  9993
2 64101  53.1602  28.6578 0001123  54.2929 305.8176 15.30190771 45828
